SCD 1                   
1 22490U 93009B   26196.59592898  .00000300  00000+0  31432-4 0  9996
2 22490  24.9705  32.1669 0042087  78.7632 337.6784 14.46128742765237
TECHSAT 1B (GO-32)      
1 25397U 98043D   26196.51275166  .00000004  00000+0  21829-4 0  9996
2 25397  99.0085 189.9879 0002190 113.9012 246.2396 14.24433411455361
SCD 2                   
1 25504U 98060A   26196.26197317  .00000274  00000+0  25831-4 0  9994
2 25504  24.9945 259.0250 0016971  60.2756 348.6331 14.45534804464396
DLR-TUBSAT              
1 25757U 99029B   26196.46948496 -.00000001  00000+0  11640-4 0  9996
2 25757  98.6711 192.9061 0012968 263.7879  96.1839 14.52433289437355
TERRA                   
1 25994U 99068A   26196.59028586  .00000183  00000+0  46298-4 0  9992
2 25994  97.9442 245.0082 0003431 121.8524  22.4444 14.61123920413750
MAROC-TUBSAT            
1 27004U 01056D   26196.47148365 -.00000037  00000+0  10683-4 0  9999
2 27004  99.8098  13.8661 0020593  71.4002 315.1738 13.70263567230065
AQUA                    
1 27424U 02022A   26195.50499725  .00000358  00000+0  80864-4 0  9994
2 27424  98.4295 165.3370 0000927 111.8770   0.7592 14.62196472287266
SHIYAN-1 (SY-1)         
1 28220U 04012A   26196.55669651  .00008528  00000+0  25807-3 0  9995
2 28220  97.8690 276.4819 0004091 272.6450  87.4324 15.34459999215444
AURA                    
1 28376U 04026A   26196.53826008  .00000350  00000+0  80467-4 0  9990
2 28376  98.3430 153.2293 0001328  93.5279 266.6074 14.61368102170358
IRS-P5 (CARTOSAT-1)     
1 28649U 05017A   26196.53161993  .00000736  00000+0  79490-4 0  9991
2 28649  97.5307 218.3103 0001377  53.8816 306.2530 14.91117745148045
SINAH 1                 
1 28893U 05043D   26196.61980980  .00000131  00000+0  34286-4 0  9998
2 28893  98.2894 331.1145 0014430 182.1741 177.9401 14.64175650104683
RESURS-DK 1             
1 29228U 06021A   26196.52482071  .00000919  00000+0  57571-4 0  9992
2 29228  69.9307 266.1925 0007128 270.7395  89.2954 15.13319759106863
ARIRANG-2 (KOMPSAT-2)   
1 29268U 06031A   26196.64635803  .00000233  00000+0  52271-4 0  9994
2 29268  97.8305  19.7167 0014217 349.4023  84.3471 14.64676301 65648
LAPAN-TUBSAT            
1 29709U 07001A   26196.60339727 -.00000154  00000+0 -10987-4 0  9996
2 29709  98.1345 196.4695 0013551  92.4305 267.8461 14.85974742 55372
HAIYANG-1B              
1 31113U 07010A   26196.53234017  .00000030  00000+0  27134-4 0  9999
2 31113  98.3515 177.2808 0014637 114.8170 245.4538 14.31033417  4695
COSMO-SKYMED 1          
1 31598U 07023A   26196.60636766  .00001374  00000+0  12398-3 0  9992
2 31598  97.8846  28.7027 0001457 103.0856 257.0528 14.97220334 34041
TERRASAR-X              
1 31698U 07026A   26188.47915537  .00000240  00000+0  14624-4 0  9994
2 31698  97.4461 195.8972 0001878  86.9540 273.1909 15.19153986 56300
WORLDVIEW-1 (WV-1)      
1 32060U 07041A   26196.58324184  .00003333  00000+0  13825-3 0  9995
2 32060  97.3908 315.9284 0001572 204.6540 155.4623 15.24561769 47202
YAOGAN-3                
1 32289U 07055A   26196.58533677  .00001762  00000+0  18440-3 0  9994
2 32289  97.8145 226.1826 0001661  77.8894 282.2510 14.90886690 10107
COSMO-SKYMED 2          
1 32376U 07059A   26196.65048994  .00000145  00000+0  24767-4 0  9990
2 32376  97.8894  19.8366 0001453  94.0872 266.0507 14.82150681  6226
RADARSAT-2              
1 32382U 07061A   26196.58592698 -.00000089  00000+0 -17622-4 0  9998
2 32382  98.5777 203.1128 0001305  83.2903 276.8428 14.29982955970012
CARTOSAT-2A             
1 32783U 08021A   26196.59172719  .00000459  00000+0  68417-4 0  9996
2 32783  97.7620 244.3288 0012497  25.9823 334.2014 14.79277859983005
HUANJING 1A (HJ-1A)     
1 33320U 08041A   26196.62010270  .00000000  00000+0  62276-5 0  9993
2 33320  97.6691 181.3619 0020346  48.1897 312.1052 14.84047550962629
HUANJING 1B (HJ-1B)     
1 33321U 08041B   26196.60223758  .00000960  00000+0  12193-3 0  9995
2 33321  97.6528 184.4300 0037991  89.9630 270.5938 14.83367399962627
GEOEYE 1                
1 33331U 08042A   26196.57117458  .00000194  00000+0  45390-4 0  9997
2 33331  98.1327 270.1627 0003917 345.5209  14.5881 14.64649628954306
THEOS                   
1 33396U 08049A   26196.57387999  .00000356  00000+0  18697-3 0  9993
2 33396  98.5560 252.9336 0001102  86.6790 273.4513 14.20137672921997
COSMO-SKYMED 3          
1 33412U 08054A   26196.62743896  .00002192  00000+0  14996-3 0  9994
2 33412  97.8246  55.6685 0015821 165.2800 194.8891 15.07115651961227
YAOGAN-4                
1 33446U 08061A   26196.36605479  .00000435  00000+0  59793-4 0  9997
2 33446  97.9304 129.6693 0013795 345.1034  14.9771 14.83251434949843
GOSAT (IBUKI)           
1 33492U 09002A   26196.29759924  .00000287  00000+0  59074-4 0  9998
2 33492  98.0913 307.0297 0001141  87.6360 272.4976 14.67539672935585
DEIMOS-1                
1 35681U 09041A   26196.67343529  .00000461  00000+0  75196-4 0  9992
2 35681  97.7427 352.6707 0002792  91.9793 268.1737 14.75265119911083
